{
  "type": "FeatureCollection",
  "name": "shanghai_datav_mock",
  "features": [
    {
      "type": "Feature",
      "properties": {
        "region_code": "huangpu_core",
        "name": "黄浦核心区",
        "display_name": "黄浦",
        "keywords": ["上海", "四马路", "福州路", "南京东路", "河南路", "商务印书馆", "生活书店", "良友图书"]
      },
      "geometry": {
        "type": "Polygon",
        "coordinates": [[[121.460,31.210],[121.473,31.212],[121.485,31.218],[121.488,31.227],[121.485,31.236],[121.477,31.240],[121.467,31.237],[121.460,31.228],[121.458,31.218],[121.460,31.210]]]
      }
    },
    {
      "type": "Feature",
      "properties": {
        "region_code": "hongkou_district",
        "name": "虹口文化区",
        "display_name": "虹口",
        "keywords": ["虹口", "四川北路", "多伦路", "公啡咖啡馆", "内山", "北四川路", "前哨"]
      },
      "geometry": {
        "type": "Polygon",
        "coordinates": [[[121.474,31.239],[121.489,31.239],[121.504,31.246],[121.508,31.257],[121.505,31.271],[121.493,31.277],[121.479,31.271],[121.472,31.257],[121.474,31.239]]]
      }
    },
    {
      "type": "Feature",
      "properties": {
        "region_code": "zhabei_baoshan",
        "name": "闸北宝山路片区",
        "display_name": "闸北",
        "keywords": ["闸北", "宝山路", "创造社", "太阳社", "光华书局", "萌芽月刊", "中华艺术大学"]
      },
      "geometry": {
        "type": "Polygon",
        "coordinates": [[[121.446,31.238],[121.460,31.236],[121.472,31.240],[121.472,31.256],[121.478,31.270],[121.469,31.279],[121.452,31.281],[121.440,31.271],[121.438,31.252],[121.446,31.238]]]
      }
    },
    {
      "type": "Feature",
      "properties": {
        "region_code": "xuhui_southwest",
        "name": "徐汇南部片区",
        "display_name": "徐汇",
        "keywords": ["徐家汇", "枫林桥", "龙华", "龙华烈士陵园"]
      },
      "geometry": {
        "type": "Polygon",
        "coordinates": [[[121.437,31.191],[121.454,31.193],[121.469,31.198],[121.471,31.211],[121.463,31.223],[121.450,31.226],[121.439,31.220],[121.434,31.205],[121.437,31.191]]]
      }
    },
    {
      "type": "Feature",
      "properties": {
        "region_code": "yangpu_fudan",
        "name": "杨浦学术区",
        "display_name": "杨浦",
        "keywords": ["杨浦", "复旦大学", "邯郸路"]
      },
      "geometry": {
        "type": "Polygon",
        "coordinates": [[[121.495,31.258],[121.511,31.257],[121.528,31.265],[121.534,31.279],[121.532,31.296],[121.520,31.305],[121.505,31.300],[121.495,31.287],[121.493,31.271],[121.495,31.258]]]
      }
    },
    {
      "type": "Feature",
      "properties": {
        "region_code": "putuo_west",
        "name": "普陀西区",
        "display_name": "普陀",
        "keywords": ["普陀"]
      },
      "geometry": {
        "type": "Polygon",
        "coordinates": [[[121.414,31.225],[121.430,31.224],[121.444,31.230],[121.443,31.247],[121.438,31.262],[121.427,31.274],[121.414,31.270],[121.408,31.254],[121.410,31.236],[121.414,31.225]]]
      }
    },
    {
      "type": "Feature",
      "properties": {
        "region_code": "pudong_riverside",
        "name": "浦东沿江片区",
        "display_name": "浦东",
        "keywords": ["浦东"]
      },
      "geometry": {
        "type": "Polygon",
        "coordinates": [[[121.489,31.212],[121.501,31.216],[121.514,31.223],[121.523,31.237],[121.523,31.254],[121.516,31.268],[121.503,31.271],[121.495,31.260],[121.493,31.245],[121.489,31.212]]]
      }
    }
  ]
}
